{
"type": "FeatureCollection",
"name": "places-RI",
"crs": { "type": "name", "properties": { "name": "urn:ogc:def:crs:OGC:1.3:CRS84" } },
"features": [
{ "type": "Feature", "properties": { "GEOID": "4459000", "NAME": "Providence", "NAMELSAD": "Providence city", "STUSPS": "RI", "STATE_NAME": "Rhode Island", "LSAD": "25", "place_type": "Incorporated place", "population": 191767.0, "moe": 114.0 }, "geometry": { "type": "MultiPolygon", "coordinates": [ [ [ [ -71.472432, 41.834181 ], [ -71.470444, 41.832912 ], [ -71.46759, 41.831491 ], [ -71.464769, 41.831048 ], [ -71.462432, 41.827413 ], [ -71.462423, 41.824687 ], [ -71.465216, 41.824604 ], [ -71.471306, 41.824139 ], [ -71.471077, 41.822384 ], [ -71.470877, 41.821944 ], [ -71.470031, 41.819828 ], [ -71.46965, 41.818876 ], [ -71.468193, 41.815445 ], [ -71.466551, 41.810742 ], [ -71.468703, 41.8106 ], [ -71.466803, 41.8078 ], [ -71.469165, 41.804864 ], [ -71.467072, 41.80447 ], [ -71.46492, 41.805874 ], [ -71.464583, 41.804991 ], [ -71.463665, 41.805046 ], [ -71.461882, 41.805099 ], [ -71.457703, 41.805569 ], [ -71.452314, 41.806133 ], [ -71.45023, 41.80637 ], [ -71.447533, 41.806614 ], [ -71.443678, 41.807032 ], [ -71.442223, 41.807203 ], [ -71.442015, 41.80604 ], [ -71.441318, 41.80475 ], [ -71.440541, 41.803946 ], [ -71.440252, 41.803705 ], [ -71.439938, 41.803415 ], [ -71.439266, 41.802027 ], [ -71.43934, 41.797241 ], [ -71.438541, 41.794229 ], [ -71.437769, 41.793399 ], [ -71.436482, 41.788412 ], [ -71.434046, 41.786307 ], [ -71.431603, 41.786254 ], [ -71.421667, 41.78619 ], [ -71.42061, 41.786184 ], [ -71.422132, 41.78186 ], [ -71.42381, 41.777267 ], [ -71.419429, 41.77634 ], [ -71.414963, 41.773193 ], [ -71.413296, 41.772831 ], [ -71.411947, 41.772381 ], [ -71.410036, 41.77376 ], [ -71.408787, 41.778125 ], [ -71.406397, 41.778957 ], [ -71.405114, 41.779328 ], [ -71.403768, 41.780956 ], [ -71.403051, 41.782979 ], [ -71.404259, 41.785849 ], [ -71.401657, 41.785889 ], [ -71.398247, 41.786011 ], [ -71.397728, 41.78603 ], [ -71.395042, 41.786148 ], [ -71.389413, 41.786335 ], [ -71.3824716, 41.7850992 ], [ -71.381287, 41.785303 ], [ -71.37168530000001, 41.7833827 ], [ -71.369694, 41.783058 ], [ -71.371008, 41.786694 ], [ -71.370731, 41.787092 ], [ -71.372002, 41.789823 ], [ -71.372711, 41.788518 ], [ -71.373308, 41.791117 ], [ -71.377299, 41.7947 ], [ -71.380799, 41.7963 ], [ -71.385199, 41.8021 ], [ -71.390099, 41.8052 ], [ -71.393499, 41.8071 ], [ -71.394984, 41.810773 ], [ -71.395258, 41.811669 ], [ -71.393528, 41.814756 ], [ -71.387083, 41.816372 ], [ -71.385572, 41.818996 ], [ -71.382797, 41.822695 ], [ -71.377434, 41.829288 ], [ -71.373587, 41.832486 ], [ -71.373099, 41.8366 ], [ -71.372996, 41.838065 ], [ -71.372247, 41.843337 ], [ -71.37226, 41.844157 ], [ -71.372334, 41.850548 ], [ -71.375021, 41.857449 ], [ -71.376699, 41.8575 ], [ -71.379003, 41.857478 ], [ -71.383719, 41.857086 ], [ -71.391101, 41.856945 ], [ -71.399596, 41.856782 ], [ -71.405543, 41.856672 ], [ -71.409275, 41.856601 ], [ -71.411057, 41.858913 ], [ -71.417418, 41.859666 ], [ -71.422155, 41.860266 ], [ -71.429906, 41.861255 ], [ -71.434998, 41.861824 ], [ -71.442986, 41.856556 ], [ -71.446686, 41.85405 ], [ -71.448324, 41.852981 ], [ -71.455905, 41.847903 ], [ -71.459526, 41.84544 ], [ -71.460292, 41.844957 ], [ -71.46456, 41.842066 ], [ -71.468742, 41.83926 ], [ -71.472459, 41.836981 ], [ -71.472432, 41.834181 ] ] ] ] } },
{ "type": "Feature", "properties": { "GEOID": "4419180", "NAME": "Cranston", "NAMELSAD": "Cranston city", "STUSPS": "RI", "STATE_NAME": "Rhode Island", "LSAD": "25", "place_type": "Incorporated place", "population": 83250.0, "moe": 48.0 }, "geometry": { "type": "MultiPolygon", "coordinates": [ [ [ [ -71.55929, 41.789344 ], [ -71.554766, 41.765271 ], [ -71.553165, 41.756984 ], [ -71.552696, 41.755455 ], [ -71.548775, 41.736607 ], [ -71.547353, 41.731203 ], [ -71.545807, 41.730097 ], [ -71.534286, 41.730171 ], [ -71.525348, 41.730328 ], [ -71.519928, 41.730443 ], [ -71.519413, 41.730469 ], [ -71.516861, 41.730608 ], [ -71.497849, 41.73115 ], [ -71.486568, 41.731519 ], [ -71.48391, 41.731603 ], [ -71.476815, 41.731789 ], [ -71.467939, 41.732079 ], [ -71.460599, 41.732268 ], [ -71.455342, 41.732365 ], [ -71.45285, 41.734335 ], [ -71.453736, 41.737428 ], [ -71.451278, 41.739704 ], [ -71.446198, 41.739979 ], [ -71.444684, 41.740155 ], [ -71.444359, 41.744209 ], [ -71.445327, 41.745607 ], [ -71.446538, 41.748887 ], [ -71.440619, 41.752153 ], [ -71.441165, 41.754712 ], [ -71.43912, 41.75639 ], [ -71.440574, 41.757912 ], [ -71.438829, 41.757829 ], [ -71.437561, 41.759827 ], [ -71.435883, 41.759677 ], [ -71.434069, 41.760936 ], [ -71.433775, 41.761441 ], [ -71.432968, 41.759335 ], [ -71.430969, 41.760617 ], [ -71.42989, 41.760761 ], [ -71.426224, 41.761025 ], [ -71.422957, 41.762971 ], [ -71.421994, 41.76458 ], [ -71.419797, 41.764785 ], [ -71.418715, 41.764076 ], [ -71.420091, 41.761746 ], [ -71.419078, 41.761885 ], [ -71.417848, 41.762167 ], [ -71.415806, 41.762902 ], [ -71.414383, 41.762953 ], [ -71.412183, 41.765058 ], [ -71.410702, 41.766554 ], [ -71.405203, 41.76761 ], [ -71.402355, 41.767524 ], [ -71.401395, 41.766552 ], [ -71.399577, 41.768321 ], [ -71.395628, 41.766684 ], [ -71.394121, 41.764038 ], [ -71.390534, 41.764391 ], [ -71.388517, 41.763775 ], [ -71.385659, 41.758421 ], [ -71.384733, 41.757602 ], [ -71.3838044, 41.7585117 ], [ -71.385566, 41.76031 ], [ -71.385495, 41.768664 ], [ -71.388401, 41.773862 ], [ -71.389844, 41.776441 ], [ -71.3899279, 41.776644399999988 ], [ -71.3910576, 41.7793835 ], [ -71.3912198, 41.7797767 ], [ -71.391745, 41.78105 ], [ -71.390557, 41.783708 ], [ -71.3824716, 41.7850992 ], [ -71.389413, 41.786335 ], [ -71.395042, 41.786148 ], [ -71.397728, 41.78603 ], [ -71.398247, 41.786011 ], [ -71.401657, 41.785889 ], [ -71.404259, 41.785849 ], [ -71.403051, 41.782979 ], [ -71.403768, 41.780956 ], [ -71.405114, 41.779328 ], [ -71.406397, 41.778957 ], [ -71.408787, 41.778125 ], [ -71.410036, 41.77376 ], [ -71.411947, 41.772381 ], [ -71.413296, 41.772831 ], [ -71.414963, 41.773193 ], [ -71.419429, 41.77634 ], [ -71.42381, 41.777267 ], [ -71.422132, 41.78186 ], [ -71.42061, 41.786184 ], [ -71.421667, 41.78619 ], [ -71.431603, 41.786254 ], [ -71.434046, 41.786307 ], [ -71.436482, 41.788412 ], [ -71.437769, 41.793399 ], [ -71.438541, 41.794229 ], [ -71.43934, 41.797241 ], [ -71.439266, 41.802027 ], [ -71.439938, 41.803415 ], [ -71.440252, 41.803705 ], [ -71.440541, 41.803946 ], [ -71.441318, 41.80475 ], [ -71.442015, 41.80604 ], [ -71.442223, 41.807203 ], [ -71.443678, 41.807032 ], [ -71.447533, 41.806614 ], [ -71.45023, 41.80637 ], [ -71.452314, 41.806133 ], [ -71.457703, 41.805569 ], [ -71.461882, 41.805099 ], [ -71.463665, 41.805046 ], [ -71.466027, 41.803749 ], [ -71.467582, 41.798109 ], [ -71.469597, 41.798812 ], [ -71.471598, 41.79831 ], [ -71.47231, 41.79646 ], [ -71.479736, 41.796852 ], [ -71.481354, 41.796497 ], [ -71.482727, 41.795998 ], [ -71.484276, 41.795246 ], [ -71.487373, 41.793221 ], [ -71.48941, 41.791679 ], [ -71.497426, 41.790893 ], [ -71.503067, 41.789143 ], [ -71.506058, 41.788879 ], [ -71.513844, 41.788417 ], [ -71.516174, 41.788582 ], [ -71.51894, 41.788879 ], [ -71.521797, 41.789738 ], [ -71.526405, 41.790329 ], [ -71.530556, 41.791447 ], [ -71.534225, 41.793213 ], [ -71.54731, 41.792126 ], [ -71.55524, 41.789537 ], [ -71.55929, 41.789344 ] ] ] ] } },
{ "type": "Feature", "properties": { "GEOID": "4474300", "NAME": "Warwick", "NAMELSAD": "Warwick city", "STUSPS": "RI", "STATE_NAME": "Rhode Island", "LSAD": "25", "place_type": "Incorporated place", "population": 83175.0, "moe": 33.0 }, "geometry": { "type": "MultiPolygon", "coordinates": [ [ [ [ -71.467844, 41.634165 ], [ -71.463436, 41.636544 ], [ -71.462354, 41.63838 ], [ -71.459123, 41.637946 ], [ -71.458324, 41.636366 ], [ -71.45558, 41.635109 ], [ -71.45423, 41.632953 ], [ -71.454404, 41.631202 ], [ -71.45311, 41.629859 ], [ -71.451366, 41.629455 ], [ -71.448447, 41.633377 ], [ -71.449286, 41.63673 ], [ -71.446277, 41.638837 ], [ -71.445084, 41.641373 ], [ -71.441986, 41.643275 ], [ -71.442717, 41.644398 ], [ -71.442508, 41.645818 ], [ -71.440925, 41.64618 ], [ -71.439301, 41.648023 ], [ -71.435944, 41.649223 ], [ -71.432796, 41.651323 ], [ -71.428941, 41.650569 ], [ -71.423884, 41.653888 ], [ -71.417581, 41.654952 ], [ -71.40888, 41.6538407 ], [ -71.408858, 41.657841 ], [ -71.408621, 41.663168 ], [ -71.417652, 41.665298 ], [ -71.424285, 41.670275 ], [ -71.426086, 41.670484 ], [ -71.426647, 41.669526 ], [ -71.430038, 41.667541 ], [ -71.434748, 41.666263 ], [ -71.440153, 41.666843 ], [ -71.440996, 41.666231 ], [ -71.442148, 41.663728 ], [ -71.4423769, 41.663611499999988 ], [ -71.443021, 41.6602 ], [ -71.446018, 41.655376 ], [ -71.449315, 41.652566 ], [ -71.450376, 41.651449 ], [ -71.452157, 41.648492 ], [ -71.454876, 41.647445 ], [ -71.458017, 41.649809 ], [ -71.458654, 41.649266 ], [ -71.465652, 41.643098 ], [ -71.464831, 41.638904 ], [ -71.468692, 41.638594 ], [ -71.467844, 41.634165 ] ] ], [ [ [ -71.515419, 41.696039 ], [ -71.511574, 41.696087 ], [ -71.506142, 41.696467 ], [ -71.501679, 41.696474 ], [ -71.50103, 41.68759 ], [ -71.500723, 41.685016 ], [ -71.500062, 41.679481 ], [ -71.499836, 41.673776 ], [ -71.499451, 41.666122 ], [ -71.498932, 41.664607 ], [ -71.499225, 41.662948 ], [ -71.490206, 41.663193 ], [ -71.45853, 41.663734 ], [ -71.45829, 41.663705 ], [ -71.451218, 41.663923 ], [ -71.450127, 41.663964 ], [ -71.445572, 41.664066 ], [ -71.4449324, 41.664029 ], [ -71.446247, 41.66631 ], [ -71.447018, 41.671216 ], [ -71.446573, 41.671959 ], [ -71.444621, 41.673016 ], [ -71.444268, 41.673647 ], [ -71.444574, 41.674298 ], [ -71.447699, 41.67787 ], [ -71.449997, 41.68399 ], [ -71.4500565, 41.6847205 ], [ -71.450198, 41.686459 ], [ -71.44848, 41.688414 ], [ -71.445923, 41.691144 ], [ -71.4451745, 41.690936 ], [ -71.441896, 41.690025 ], [ -71.443082, 41.688303 ], [ -71.441336, 41.686446 ], [ -71.433815, 41.686957 ], [ -71.4299621, 41.6862843 ], [ -71.418069, 41.684208 ], [ -71.4013083, 41.6835336 ], [ -71.398163, 41.683407 ], [ -71.3915049, 41.6840097 ], [ -71.390551, 41.684096 ], [ -71.389432, 41.683425 ], [ -71.3897912, 41.6826772 ], [ -71.390775, 41.680629 ], [ -71.38988, 41.671903 ], [ -71.386279, 41.67098 ], [ -71.382049, 41.667317 ], [ -71.37791, 41.666646 ], [ -71.372988, 41.672575 ], [ -71.373444, 41.678614 ], [ -71.371542, 41.685359 ], [ -71.3693778, 41.6863404 ], [ -71.364887, 41.688377 ], [ -71.362748, 41.691926 ], [ -71.365601, 41.693701 ], [ -71.365646, 41.700622 ], [ -71.3653446, 41.7016191 ], [ -71.3646728, 41.7038413 ], [ -71.364412, 41.704704 ], [ -71.365717, 41.707898 ], [ -71.365717, 41.711615 ], [ -71.3642783, 41.7124639 ], [ -71.357282, 41.716592 ], [ -71.357282, 41.718188 ], [ -71.363937, 41.71739 ], [ -71.369879, 41.718277 ], [ -71.3703745, 41.718528 ], [ -71.376534, 41.721648 ], [ -71.3780678, 41.7235758 ], [ -71.38105, 41.727324 ], [ -71.3809893, 41.7281164 ], [ -71.380574, 41.733533 ], [ -71.3806926, 41.7361835 ], [ -71.38081, 41.738809 ], [ -71.380812, 41.738853 ], [ -71.3803233, 41.7394 ], [ -71.376058, 41.744174 ], [ -71.380574, 41.745947 ], [ -71.380099, 41.749316 ], [ -71.3801726, 41.7498104 ], [ -71.38105, 41.7557 ], [ -71.3811899, 41.7558428 ], [ -71.3838044, 41.7585117 ], [ -71.384733, 41.757602 ], [ -71.385659, 41.758421 ], [ -71.388517, 41.763775 ], [ -71.390534, 41.764391 ], [ -71.394121, 41.764038 ], [ -71.395628, 41.766684 ], [ -71.399577, 41.768321 ], [ -71.401395, 41.766552 ], [ -71.402355, 41.767524 ], [ -71.405203, 41.76761 ], [ -71.410702, 41.766554 ], [ -71.412183, 41.765058 ], [ -71.414383, 41.762953 ], [ -71.415806, 41.762902 ], [ -71.417848, 41.762167 ], [ -71.419078, 41.761885 ], [ -71.420091, 41.761746 ], [ -71.418715, 41.764076 ], [ -71.419797, 41.764785 ], [ -71.421994, 41.76458 ], [ -71.422957, 41.762971 ], [ -71.426224, 41.761025 ], [ -71.42989, 41.760761 ], [ -71.430969, 41.760617 ], [ -71.432968, 41.759335 ], [ -71.433775, 41.761441 ], [ -71.434069, 41.760936 ], [ -71.435883, 41.759677 ], [ -71.437561, 41.759827 ], [ -71.438829, 41.757829 ], [ -71.440574, 41.757912 ], [ -71.43912, 41.75639 ], [ -71.441165, 41.754712 ], [ -71.440619, 41.752153 ], [ -71.446538, 41.748887 ], [ -71.445327, 41.745607 ], [ -71.444359, 41.744209 ], [ -71.444684, 41.740155 ], [ -71.446198, 41.739979 ], [ -71.451278, 41.739704 ], [ -71.453736, 41.737428 ], [ -71.45285, 41.734335 ], [ -71.455342, 41.732365 ], [ -71.460599, 41.732268 ], [ -71.467939, 41.732079 ], [ -71.476815, 41.731789 ], [ -71.48391, 41.731603 ], [ -71.484781, 41.728724 ], [ -71.485802, 41.726125 ], [ -71.489327, 41.72284 ], [ -71.49028, 41.721227 ], [ -71.490539, 41.717516 ], [ -71.492892, 41.717826 ], [ -71.497116, 41.713167 ], [ -71.500253, 41.711823 ], [ -71.500786, 41.711606 ], [ -71.502365, 41.711472 ], [ -71.505188, 41.711307 ], [ -71.506691, 41.709482 ], [ -71.511904, 41.70723 ], [ -71.512764, 41.706675 ], [ -71.513336, 41.705694 ], [ -71.518913, 41.695899 ], [ -71.515419, 41.696039 ] ] ] ] } },
{ "type": "Feature", "properties": { "GEOID": "4454640", "NAME": "Pawtucket", "NAMELSAD": "Pawtucket city", "STUSPS": "RI", "STATE_NAME": "Rhode Island", "LSAD": "25", "place_type": "Incorporated place", "population": 75893.0, "moe": 41.0 }, "geometry": { "type": "MultiPolygon", "coordinates": [ [ [ [ -71.419876, 41.869774 ], [ -71.419594, 41.86911 ], [ -71.418624, 41.864849 ], [ -71.417418, 41.859666 ], [ -71.411057, 41.858913 ], [ -71.409275, 41.856601 ], [ -71.405543, 41.856672 ], [ -71.399596, 41.856782 ], [ -71.391101, 41.856945 ], [ -71.383719, 41.857086 ], [ -71.379003, 41.857478 ], [ -71.376699, 41.8575 ], [ -71.375021, 41.857449 ], [ -71.365795, 41.858341 ], [ -71.363744, 41.85854 ], [ -71.358688, 41.859046 ], [ -71.354507, 41.859467 ], [ -71.342969, 41.860684 ], [ -71.341443, 41.86071 ], [ -71.339217, 41.860736 ], [ -71.337776, 41.860917 ], [ -71.334653, 41.861314 ], [ -71.334494, 41.8612395 ], [ -71.333997, 41.8623 ], [ -71.3378267, 41.8731679 ], [ -71.3378289, 41.8731741 ], [ -71.338863800000013, 41.8761112 ], [ -71.340798, 41.8816 ], [ -71.3397189, 41.8900884 ], [ -71.3397158, 41.8901129 ], [ -71.339298, 41.893399 ], [ -71.339298, 41.893599 ], [ -71.3391777, 41.8945613 ], [ -71.338698, 41.898399 ], [ -71.3387625, 41.8983912 ], [ -71.3397632, 41.8982697 ], [ -71.3458749, 41.8975276 ], [ -71.3490536, 41.8971416 ], [ -71.352699, 41.896699 ], [ -71.3545188, 41.896517 ], [ -71.354699, 41.896499 ], [ -71.362499, 41.895599 ], [ -71.364699, 41.895399 ], [ -71.365399, 41.895299 ], [ -71.370999, 41.894599 ], [ -71.3711903, 41.8945853 ], [ -71.373799, 41.894399 ], [ -71.3763523, 41.8940344 ], [ -71.3764964, 41.8940138 ], [ -71.3766, 41.893999 ], [ -71.3815294, 41.893225799999989 ], [ -71.381638, 41.8927 ], [ -71.383093, 41.88987 ], [ -71.381824, 41.88837 ], [ -71.380219, 41.88793 ], [ -71.381008, 41.884067 ], [ -71.385269, 41.883511 ], [ -71.386742, 41.883316 ], [ -71.39231, 41.882599 ], [ -71.403706, 41.881059 ], [ -71.405004, 41.880894 ], [ -71.406403, 41.880716 ], [ -71.415553, 41.879547 ], [ -71.4219, 41.878695 ], [ -71.419876, 41.869774 ] ] ] ] } },
{ "type": "Feature", "properties": { "GEOID": "4422960", "NAME": "East Providence", "NAMELSAD": "East Providence city", "STUSPS": "RI", "STATE_NAME": "Rhode Island", "LSAD": "25", "place_type": "Incorporated place", "population": 47281.0, "moe": 54.0 }, "geometry": { "type": "MultiPolygon", "coordinates": [ [ [ [ -71.394984, 41.810773 ], [ -71.393499, 41.8071 ], [ -71.390099, 41.8052 ], [ -71.385199, 41.8021 ], [ -71.380799, 41.7963 ], [ -71.377299, 41.7947 ], [ -71.373308, 41.791117 ], [ -71.372711, 41.788518 ], [ -71.372002, 41.789823 ], [ -71.370731, 41.787092 ], [ -71.371008, 41.786694 ], [ -71.369694, 41.783058 ], [ -71.37168530000001, 41.7833827 ], [ -71.371542, 41.783354 ], [ -71.370583, 41.780874 ], [ -71.367977, 41.780695 ], [ -71.3661043, 41.7786003 ], [ -71.365125, 41.777505 ], [ -71.366314, 41.775201 ], [ -71.366076, 41.771124 ], [ -71.3664555, 41.7704258 ], [ -71.369641, 41.764565 ], [ -71.36465, 41.764742 ], [ -71.3623927, 41.761514399999989 ], [ -71.361798, 41.760664 ], [ -71.3612709, 41.7576179 ], [ -71.3612622, 41.7575674 ], [ -71.360847, 41.755168 ], [ -71.362348, 41.75089 ], [ -71.360134, 41.749494 ], [ -71.359421, 41.746657 ], [ -71.359896, 41.745061 ], [ -71.3558966, 41.745061 ], [ -71.355818, 41.745061 ], [ -71.353897, 41.751301 ], [ -71.351495, 41.752635 ], [ -71.342395, 41.758965 ], [ -71.336781, 41.762855 ], [ -71.332659, 41.765715 ], [ -71.331997, 41.766165 ], [ -71.324717, 41.771201 ], [ -71.31995, 41.77451 ], [ -71.3179242, 41.7761573 ], [ -71.327896, 41.780501 ], [ -71.329396, 41.7826 ], [ -71.329296, 41.7868 ], [ -71.3301162, 41.7883555 ], [ -71.3310608, 41.7901469 ], [ -71.332196, 41.7923 ], [ -71.333896, 41.7945 ], [ -71.335797, 41.7948 ], [ -71.339297, 41.7963 ], [ -71.340697, 41.7983 ], [ -71.340797, 41.8002 ], [ -71.339297, 41.8044 ], [ -71.339297, 41.8065 ], [ -71.3392736, 41.8066052 ], [ -71.338897, 41.8083 ], [ -71.3390037, 41.8085491 ], [ -71.3390217, 41.808591 ], [ -71.339197, 41.809 ], [ -71.347197, 41.8231 ], [ -71.3458887, 41.8258872 ], [ -71.344897, 41.828 ], [ -71.3428394, 41.8295529 ], [ -71.339597, 41.832 ], [ -71.337597, 41.8337 ], [ -71.3375045, 41.8337694 ], [ -71.335197, 41.8355 ], [ -71.3407957, 41.8424559 ], [ -71.341797, 41.8437 ], [ -71.342198, 41.8448 ], [ -71.3416734, 41.8459194 ], [ -71.334494, 41.8612395 ], [ -71.334653, 41.861314 ], [ -71.337776, 41.860917 ], [ -71.339217, 41.860736 ], [ -71.341443, 41.86071 ], [ -71.342969, 41.860684 ], [ -71.354507, 41.859467 ], [ -71.358688, 41.859046 ], [ -71.363744, 41.85854 ], [ -71.365795, 41.858341 ], [ -71.375021, 41.857449 ], [ -71.372334, 41.850548 ], [ -71.37226, 41.844157 ], [ -71.372247, 41.843337 ], [ -71.372996, 41.838065 ], [ -71.373099, 41.8366 ], [ -71.373587, 41.832486 ], [ -71.377434, 41.829288 ], [ -71.382797, 41.822695 ], [ -71.385572, 41.818996 ], [ -71.387083, 41.816372 ], [ -71.393528, 41.814756 ], [ -71.395258, 41.811669 ], [ -71.394984, 41.810773 ] ] ] ] } },
{ "type": "Feature", "properties": { "GEOID": "4480780", "NAME": "Woonsocket", "NAMELSAD": "Woonsocket city", "STUSPS": "RI", "STATE_NAME": "Rhode Island", "LSAD": "25", "place_type": "Incorporated place", "population": 43521.0, "moe": 41.0 }, "geometry": { "type": "MultiPolygon", "coordinates": [ [ [ [ -71.536049, 41.999997 ], [ -71.533301, 41.993419 ], [ -71.531975, 41.990264 ], [ -71.531694, 41.989614 ], [ -71.531662, 41.989556 ], [ -71.528008, 41.988407 ], [ -71.522354, 41.985653 ], [ -71.518066, 41.983696 ], [ -71.515797, 41.983276 ], [ -71.515503, 41.983174 ], [ -71.515232, 41.983106 ], [ -71.50706, 41.981877 ], [ -71.491746, 41.979612 ], [ -71.487364, 41.979085 ], [ -71.480327, 41.986378 ], [ -71.472726, 41.99426 ], [ -71.463733, 42.003586 ], [ -71.459891, 42.00757 ], [ -71.459297, 42.010551 ], [ -71.458214, 42.017479 ], [ -71.4581166, 42.0177622 ], [ -71.4837129, 42.0174166 ], [ -71.4837831, 42.0174157 ], [ -71.4913543, 42.0173134 ], [ -71.4982583, 42.0172202 ], [ -71.499905, 42.017198 ], [ -71.500905, 42.017098 ], [ -71.5020495, 42.0170113 ], [ -71.5020555, 42.0170108 ], [ -71.5116334, 42.0162853 ], [ -71.5246412, 42.0152999 ], [ -71.527306, 42.015098 ], [ -71.527606, 42.014998 ], [ -71.5277, 42.0149961 ], [ -71.5289281, 42.0149708 ], [ -71.52999, 42.011045 ], [ -71.529707, 42.009877 ], [ -71.540116, 42.009805 ], [ -71.536049, 41.999997 ] ] ] ] } },
{ "type": "Feature", "properties": { "GEOID": "4449960", "NAME": "Newport", "NAMELSAD": "Newport city", "STUSPS": "RI", "STATE_NAME": "Rhode Island", "LSAD": "25", "place_type": "Incorporated place", "population": 24874.0, "moe": 26.0 }, "geometry": { "type": "MultiPolygon", "coordinates": [ [ [ [ -71.32689, 41.45196 ], [ -71.325649, 41.452106 ], [ -71.324296, 41.453924 ], [ -71.324955, 41.45469 ], [ -71.326348, 41.45471 ], [ -71.327568, 41.452868 ], [ -71.32689, 41.45196 ] ] ], [ [ [ -71.329002, 41.48713 ], [ -71.327822, 41.482985 ], [ -71.3264, 41.483789 ], [ -71.325365, 41.487601 ], [ -71.325657, 41.490054 ], [ -71.326957, 41.493116 ], [ -71.328827, 41.492334 ], [ -71.329002, 41.48713 ] ] ], [ [ [ -71.343126, 41.494926 ], [ -71.338665, 41.494926 ], [ -71.338665, 41.496179 ], [ -71.33978, 41.498823 ], [ -71.341267, 41.500494 ], [ -71.343126, 41.497292 ], [ -71.343126, 41.494926 ] ] ], [ [ [ -71.36189, 41.460196 ], [ -71.360038, 41.460486 ], [ -71.358795, 41.459661 ], [ -71.358447, 41.457439 ], [ -71.357245, 41.456146 ], [ -71.356163, 41.450538 ], [ -71.353609, 41.449751 ], [ -71.3515705, 41.4506754 ], [ -71.3491716, 41.4517632 ], [ -71.349049, 41.4518188 ], [ -71.3468593, 41.4528117 ], [ -71.344177, 41.454028 ], [ -71.339697, 41.452577 ], [ -71.339006, 41.451902 ], [ -71.337933, 41.451693 ], [ -71.337544, 41.450979 ], [ -71.338036, 41.449528 ], [ -71.337483, 41.449317 ], [ -71.334764, 41.449516 ], [ -71.332999, 41.4512751 ], [ -71.3327335, 41.4515397 ], [ -71.331466, 41.452803 ], [ -71.327536, 41.457072 ], [ -71.326909, 41.458942 ], [ -71.323751, 41.460129 ], [ -71.320326, 41.459783 ], [ -71.319485, 41.458385 ], [ -71.31848, 41.455724 ], [ -71.316908, 41.454788 ], [ -71.314711, 41.456389 ], [ -71.312558, 41.456498 ], [ -71.310983, 41.455106 ], [ -71.311918, 41.452885 ], [ -71.312049, 41.451382 ], [ -71.3110451, 41.4512443 ], [ -71.310168, 41.451124 ], [ -71.307639, 41.452435 ], [ -71.304394, 41.454502 ], [ -71.303911, 41.45868 ], [ -71.303052, 41.459083 ], [ -71.302762, 41.459748 ], [ -71.303981, 41.463716 ], [ -71.301414, 41.467278 ], [ -71.298182, 41.467492 ], [ -71.296851, 41.469131 ], [ -71.297393, 41.473443 ], [ -71.2970658, 41.4758264 ], [ -71.2970443, 41.475983 ], [ -71.2966571, 41.478803 ], [ -71.296516, 41.479831 ], [ -71.2970198, 41.4826828 ], [ -71.297392, 41.48479 ], [ -71.296918, 41.485521 ], [ -71.2952946, 41.4862011 ], [ -71.2932015, 41.487078 ], [ -71.29133, 41.487862 ], [ -71.2856726, 41.4889675 ], [ -71.287138, 41.490549 ], [ -71.289906, 41.493501 ], [ -71.289946, 41.493589 ], [ -71.294273, 41.498183 ], [ -71.294291, 41.498262 ], [ -71.300274, 41.504571 ], [ -71.300369, 41.504642 ], [ -71.301521, 41.505949 ], [ -71.302421, 41.506998 ], [ -71.303558, 41.508579 ], [ -71.306441, 41.512716 ], [ -71.311141, 41.519396 ], [ -71.312237, 41.520853 ], [ -71.3126663, 41.5214251 ], [ -71.314579, 41.519809 ], [ -71.3186083, 41.519605 ], [ -71.3198106, 41.5195442 ], [ -71.320901, 41.519489 ], [ -71.323991, 41.522407 ], [ -71.327128, 41.521589 ], [ -71.328031, 41.518848 ], [ -71.325451, 41.51728 ], [ -71.326035, 41.51431 ], [ -71.329315, 41.513829 ], [ -71.330694, 41.507699 ], [ -71.327804, 41.504258 ], [ -71.323125, 41.503088 ], [ -71.3230307, 41.4994194 ], [ -71.3229026, 41.4944362 ], [ -71.322818, 41.491147 ], [ -71.321154, 41.48812 ], [ -71.3194673, 41.4879256 ], [ -71.318065, 41.487764 ], [ -71.317263, 41.4824707 ], [ -71.316519, 41.47756 ], [ -71.3191349, 41.4769161 ], [ -71.323531, 41.475834 ], [ -71.3236622, 41.4757688 ], [ -71.335992, 41.469647 ], [ -71.336366, 41.471738 ], [ -71.33438, 41.478204 ], [ -71.336442, 41.481985 ], [ -71.341833, 41.476012 ], [ -71.3479, 41.47059 ], [ -71.352766, 41.469245 ], [ -71.357206, 41.466124 ], [ -71.358273, 41.464431 ], [ -71.3585637, 41.4643853 ], [ -71.3592662, 41.464275 ], [ -71.359559, 41.464229 ], [ -71.361185, 41.46462 ], [ -71.362911, 41.461746 ], [ -71.36189, 41.460196 ] ] ] ] } },
{ "type": "Feature", "properties": { "GEOID": "4414140", "NAME": "Central Falls", "NAMELSAD": "Central Falls city", "STUSPS": "RI", "STATE_NAME": "Rhode Island", "LSAD": "25", "place_type": "Incorporated place", "population": 22701.0, "moe": 43.0 }, "geometry": { "type": "MultiPolygon", "coordinates": [ [ [ [ -71.406227, 41.888491 ], [ -71.405817, 41.887239 ], [ -71.403706, 41.881059 ], [ -71.39231, 41.882599 ], [ -71.386742, 41.883316 ], [ -71.385269, 41.883511 ], [ -71.381008, 41.884067 ], [ -71.380219, 41.88793 ], [ -71.381824, 41.88837 ], [ -71.383093, 41.88987 ], [ -71.381638, 41.8927 ], [ -71.3815294, 41.893225799999989 ], [ -71.3817, 41.893199 ], [ -71.3817, 41.8937517 ], [ -71.3817, 41.897062 ], [ -71.386348, 41.899636 ], [ -71.388268, 41.899805 ], [ -71.39006, 41.899319 ], [ -71.391739, 41.898343 ], [ -71.394296, 41.897652 ], [ -71.397243, 41.896782 ], [ -71.404568, 41.894824 ], [ -71.404691, 41.894784 ], [ -71.407055, 41.89191 ], [ -71.406227, 41.888491 ] ] ] ] } },
{ "type": "Feature", "properties": { "GEOID": "4476820", "NAME": "Westerly", "NAMELSAD": "Westerly CDP", "STUSPS": "RI", "STATE_NAME": "Rhode Island", "LSAD": "57", "place_type": "CDP", "population": 18411.0, "moe": 732.0 }, "geometry": { "type": "MultiPolygon", "coordinates": [ [ [ [ -71.843256, 41.404461 ], [ -71.841726, 41.403241 ], [ -71.84115, 41.39923 ], [ -71.842244, 41.396879 ], [ -71.842131, 41.395359 ], [ -71.8410616, 41.3940727 ], [ -71.8386323, 41.391151 ], [ -71.83817, 41.390595 ], [ -71.835204, 41.389558 ], [ -71.832655, 41.387156 ], [ -71.8330006, 41.3852672 ], [ -71.833531, 41.382368 ], [ -71.8316433, 41.3800224 ], [ -71.830637, 41.378772 ], [ -71.831314, 41.3777248 ], [ -71.832674, 41.375621 ], [ -71.8320766, 41.3729622 ], [ -71.831613, 41.370899 ], [ -71.8320108, 41.370244 ], [ -71.8321078, 41.3700843 ], [ -71.832499, 41.36944 ], [ -71.8349469, 41.3675609 ], [ -71.8355882, 41.3670687 ], [ -71.837633, 41.365499 ], [ -71.8377134, 41.3637056 ], [ -71.8377317, 41.3632967 ], [ -71.837873, 41.360145 ], [ -71.836768, 41.355103 ], [ -71.835703, 41.353568 ], [ -71.831303, 41.351295 ], [ -71.829902, 41.346636 ], [ -71.829384, 41.342413 ], [ -71.8306177, 41.341247 ], [ -71.827334, 41.337773 ], [ -71.826795, 41.335685 ], [ -71.831801, 41.333938 ], [ -71.832993, 41.332767 ], [ -71.831673, 41.331074 ], [ -71.831756, 41.329405 ], [ -71.827526, 41.328391 ], [ -71.824831, 41.326789 ], [ -71.820641, 41.327312 ], [ -71.81823, 41.32848 ], [ -71.813487, 41.331868 ], [ -71.808029, 41.332287 ], [ -71.804768, 41.332993 ], [ -71.800888, 41.335015 ], [ -71.796745, 41.336571 ], [ -71.787338, 41.338402 ], [ -71.785637, 41.339619 ], [ -71.779739, 41.341371 ], [ -71.777175, 41.341094 ], [ -71.768486, 41.342049 ], [ -71.768408, 41.351533 ], [ -71.768951, 41.354858 ], [ -71.769455, 41.355736 ], [ -71.771716, 41.357922 ], [ -71.772316, 41.358936 ], [ -71.773193, 41.364357 ], [ -71.771461, 41.366718 ], [ -71.767387, 41.368965 ], [ -71.764114, 41.372379 ], [ -71.762856, 41.378399 ], [ -71.762611, 41.378909 ], [ -71.774802, 41.380687 ], [ -71.774912, 41.382033 ], [ -71.77617, 41.385476 ], [ -71.776201, 41.386043 ], [ -71.779222, 41.387277 ], [ -71.780421, 41.387084 ], [ -71.780455, 41.388711 ], [ -71.782037, 41.388577 ], [ -71.78264, 41.386752 ], [ -71.784125, 41.386945 ], [ -71.7852, 41.389532 ], [ -71.786664, 41.38971 ], [ -71.788774, 41.39108 ], [ -71.790029, 41.392623 ], [ -71.792265, 41.392142 ], [ -71.796494, 41.392863 ], [ -71.797223, 41.393209 ], [ -71.798463, 41.395563 ], [ -71.798072, 41.396694 ], [ -71.794371, 41.397035 ], [ -71.794711, 41.397927 ], [ -71.797264, 41.398534 ], [ -71.799756, 41.398589 ], [ -71.799824, 41.399332 ], [ -71.800487, 41.399612 ], [ -71.800536, 41.401106 ], [ -71.803475, 41.404065 ], [ -71.798805, 41.404995 ], [ -71.79598, 41.407289 ], [ -71.798374, 41.408919 ], [ -71.796978, 41.411443 ], [ -71.797124, 41.413693 ], [ -71.796318, 41.416224 ], [ -71.7976737, 41.4169104 ], [ -71.797683, 41.416709 ], [ -71.801439, 41.415545 ], [ -71.803684, 41.417428 ], [ -71.806812, 41.416673 ], [ -71.8129, 41.419404 ], [ -71.816904, 41.419927 ], [ -71.82033, 41.419382 ], [ -71.823873, 41.417164 ], [ -71.824573, 41.415235 ], [ -71.827902, 41.414334 ], [ -71.834107, 41.411582 ], [ -71.836883, 41.412228 ], [ -71.839649, 41.412119 ], [ -71.842563, 41.409855 ], [ -71.8428166, 41.4087322 ], [ -71.843472, 41.40583 ], [ -71.843256, 41.404461 ] ] ] ] } },
{ "type": "Feature", "properties": { "GEOID": "4472500", "NAME": "Valley Falls", "NAMELSAD": "Valley Falls CDP", "STUSPS": "RI", "STATE_NAME": "Rhode Island", "LSAD": "57", "place_type": "CDP", "population": 12657.0, "moe": 1206.0 }, "geometry": { "type": "MultiPolygon", "coordinates": [ [ [ [ -71.412657, 41.92412 ], [ -71.408211, 41.919903 ], [ -71.406662, 41.918171 ], [ -71.409515, 41.917183 ], [ -71.404158, 41.914689 ], [ -71.403023, 41.911393 ], [ -71.399053, 41.91205 ], [ -71.397052, 41.910616 ], [ -71.399604, 41.906355 ], [ -71.400479, 41.901367 ], [ -71.399669, 41.901678 ], [ -71.398398, 41.90028 ], [ -71.394782, 41.898625 ], [ -71.394296, 41.897652 ], [ -71.391739, 41.898343 ], [ -71.39006, 41.899319 ], [ -71.388268, 41.899805 ], [ -71.386348, 41.899636 ], [ -71.3817, 41.897062 ], [ -71.3817, 41.903598 ], [ -71.3817, 41.9146597 ], [ -71.3817, 41.914816 ], [ -71.3817, 41.9155771 ], [ -71.3817, 41.922699 ], [ -71.3816, 41.922899 ], [ -71.3814819, 41.9477656 ], [ -71.384483, 41.949436 ], [ -71.390198, 41.947876 ], [ -71.392769, 41.945881 ], [ -71.396545, 41.945305 ], [ -71.398026, 41.945118 ], [ -71.403656, 41.946476 ], [ -71.403687, 41.945953 ], [ -71.403481, 41.944508 ], [ -71.399315, 41.936764 ], [ -71.401787, 41.933311 ], [ -71.402451, 41.931404 ], [ -71.401779, 41.929806 ], [ -71.400093, 41.92804 ], [ -71.39985, 41.92754 ], [ -71.411999, 41.924474 ], [ -71.411882, 41.924317 ], [ -71.412657, 41.92412 ] ] ] ] } },
{ "type": "Feature", "properties": { "GEOID": "4450140", "NAME": "Newport East", "NAMELSAD": "Newport East CDP", "STUSPS": "RI", "STATE_NAME": "Rhode Island", "LSAD": "57", "place_type": "CDP", "population": 11069.0, "moe": 850.0 }, "geometry": { "type": "MultiPolygon", "coordinates": [ [ [ [ -71.311141, 41.519396 ], [ -71.306441, 41.512716 ], [ -71.303558, 41.508579 ], [ -71.302421, 41.506998 ], [ -71.301521, 41.505949 ], [ -71.300369, 41.504642 ], [ -71.300274, 41.504571 ], [ -71.294291, 41.498262 ], [ -71.294273, 41.498183 ], [ -71.289946, 41.493589 ], [ -71.289906, 41.493501 ], [ -71.287138, 41.490549 ], [ -71.2856726, 41.4889675 ], [ -71.285486, 41.489004 ], [ -71.284708, 41.4888279 ], [ -71.282314, 41.488286 ], [ -71.2792136, 41.4837791 ], [ -71.2780414, 41.4820751 ], [ -71.27664, 41.480038 ], [ -71.274861, 41.479846 ], [ -71.26886, 41.484698 ], [ -71.26764, 41.488214 ], [ -71.2675229, 41.4882423 ], [ -71.26757, 41.489313 ], [ -71.26696, 41.490932 ], [ -71.266922, 41.496531 ], [ -71.267989, 41.501941 ], [ -71.269157, 41.509519 ], [ -71.277938, 41.508188 ], [ -71.275894, 41.526152 ], [ -71.271346, 41.531889 ], [ -71.275817, 41.535403 ], [ -71.284538, 41.538576 ], [ -71.286666, 41.539781 ], [ -71.291549, 41.538868 ], [ -71.292083, 41.548324 ], [ -71.294311, 41.548811 ], [ -71.301602, 41.552067 ], [ -71.302916, 41.552614 ], [ -71.300649, 41.550058 ], [ -71.30221, 41.546029 ], [ -71.307393, 41.548625 ], [ -71.309309, 41.546291 ], [ -71.307262, 41.543031 ], [ -71.307181, 41.541051 ], [ -71.308082, 41.539377 ], [ -71.308831, 41.538636 ], [ -71.306004, 41.537168 ], [ -71.301681, 41.533848 ], [ -71.30178, 41.530963 ], [ -71.306823, 41.530223 ], [ -71.307521, 41.528223 ], [ -71.305129, 41.525673 ], [ -71.302062, 41.526297 ], [ -71.300635, 41.526158 ], [ -71.301385, 41.524075 ], [ -71.302056, 41.524065 ], [ -71.303939, 41.518662 ], [ -71.305669, 41.518866 ], [ -71.310523, 41.519449 ], [ -71.311141, 41.519396 ] ] ] ] } },
{ "type": "Feature", "properties": { "GEOID": "4473132", "NAME": "Wakefield-Peace Dale", "NAMELSAD": "Wakefield-Peace Dale CDP", "STUSPS": "RI", "STATE_NAME": "Rhode Island", "LSAD": "57", "place_type": "CDP", "population": 9302.0, "moe": 768.0 }, "geometry": { "type": "MultiPolygon", "coordinates": [ [ [ [ -71.527832, 41.452206 ], [ -71.524147, 41.446632 ], [ -71.521111, 41.440594 ], [ -71.519234, 41.438519 ], [ -71.516762, 41.433334 ], [ -71.515876, 41.432876 ], [ -71.517326, 41.430737 ], [ -71.519198, 41.427811 ], [ -71.518776, 41.427223 ], [ -71.504555, 41.427033 ], [ -71.498739, 41.428434 ], [ -71.498821, 41.428622 ], [ -71.49675, 41.429188 ], [ -71.493622, 41.429718 ], [ -71.491614, 41.42998 ], [ -71.489991, 41.431714 ], [ -71.489553, 41.431911 ], [ -71.487704, 41.432149 ], [ -71.483326, 41.435421 ], [ -71.475075, 41.438877 ], [ -71.474835, 41.438891 ], [ -71.4727, 41.440015 ], [ -71.471874, 41.441085 ], [ -71.473252, 41.442181 ], [ -71.470401, 41.445159 ], [ -71.47448, 41.447202 ], [ -71.4746, 41.447256 ], [ -71.46965, 41.452278 ], [ -71.469097, 41.45426 ], [ -71.485878, 41.452492 ], [ -71.486328, 41.457508 ], [ -71.485985, 41.46014 ], [ -71.486777, 41.463705 ], [ -71.488441, 41.463581 ], [ -71.491737, 41.464771 ], [ -71.495155, 41.464306 ], [ -71.508453, 41.462521 ], [ -71.509422, 41.462257 ], [ -71.518318, 41.459709 ], [ -71.520023, 41.458648 ], [ -71.521986, 41.457522 ], [ -71.528191, 41.454025 ], [ -71.527832, 41.452206 ] ] ] ] } },
{ "type": "Feature", "properties": { "GEOID": "4420260", "NAME": "Cumberland Hill", "NAMELSAD": "Cumberland Hill CDP", "STUSPS": "RI", "STATE_NAME": "Rhode Island", "LSAD": "57", "place_type": "CDP", "population": 8648.0, "moe": 1268.0 }, "geometry": { "type": "MultiPolygon", "coordinates": [ [ [ [ -71.486156, 41.978222 ], [ -71.478657, 41.977141 ], [ -71.474141, 41.972624 ], [ -71.469992, 41.971108 ], [ -71.46536, 41.969389 ], [ -71.464389, 41.968096 ], [ -71.465011, 41.965998 ], [ -71.462227, 41.960573 ], [ -71.461781, 41.957415 ], [ -71.457241, 41.956568 ], [ -71.455219, 41.955634 ], [ -71.452315, 41.953105 ], [ -71.452027, 41.953294 ], [ -71.450942, 41.952699 ], [ -71.448624, 41.9506 ], [ -71.444359, 41.949715 ], [ -71.440269, 41.948757 ], [ -71.441147, 41.950291 ], [ -71.442924, 41.958157 ], [ -71.445007, 41.963963 ], [ -71.446419, 41.96648 ], [ -71.447838, 41.967678 ], [ -71.444191, 41.971004 ], [ -71.442896, 41.971589 ], [ -71.442279, 41.971632 ], [ -71.446278, 41.976452 ], [ -71.445446, 41.978732 ], [ -71.446922, 41.981939 ], [ -71.453332, 41.985314 ], [ -71.456821, 41.986131 ], [ -71.46087, 41.988227 ], [ -71.472726, 41.99426 ], [ -71.480327, 41.986378 ], [ -71.487364, 41.979085 ], [ -71.486156, 41.978222 ] ] ] ] } },
{ "type": "Feature", "properties": { "GEOID": "4431600", "NAME": "Greenville", "NAMELSAD": "Greenville CDP", "STUSPS": "RI", "STATE_NAME": "Rhode Island", "LSAD": "57", "place_type": "CDP", "population": 8296.0, "moe": 770.0 }, "geometry": { "type": "MultiPolygon", "coordinates": [ [ [ [ -71.579389, 41.881812 ], [ -71.579348, 41.881617 ], [ -71.575653, 41.863573 ], [ -71.574642, 41.858748 ], [ -71.573608, 41.858807 ], [ -71.550423, 41.861765 ], [ -71.545655, 41.86253 ], [ -71.540216, 41.863095 ], [ -71.531464, 41.864269 ], [ -71.531219, 41.86797 ], [ -71.530724, 41.870178 ], [ -71.531311, 41.872559 ], [ -71.532669, 41.874199 ], [ -71.536888, 41.877205 ], [ -71.535812, 41.878185 ], [ -71.532318, 41.879524 ], [ -71.532661, 41.882179 ], [ -71.534523, 41.885277 ], [ -71.536373, 41.886077 ], [ -71.535608, 41.88681 ], [ -71.538218, 41.89463 ], [ -71.541117, 41.897896 ], [ -71.543289, 41.898728 ], [ -71.543177, 41.900925 ], [ -71.544123, 41.904578 ], [ -71.548655, 41.911391 ], [ -71.551539, 41.913474 ], [ -71.552407, 41.914798 ], [ -71.554626, 41.913974 ], [ -71.555228, 41.911829 ], [ -71.557918, 41.913454 ], [ -71.559767, 41.910846 ], [ -71.560089, 41.907818 ], [ -71.562605, 41.906384 ], [ -71.561592, 41.902782 ], [ -71.558739, 41.90089 ], [ -71.559212, 41.900589 ], [ -71.562309, 41.899582 ], [ -71.564064, 41.900833 ], [ -71.566231, 41.900192 ], [ -71.566406, 41.89756 ], [ -71.568863, 41.894539 ], [ -71.56868, 41.891949 ], [ -71.571739, 41.888767 ], [ -71.571915, 41.887035 ], [ -71.570763, 41.885052 ], [ -71.576447, 41.883911 ], [ -71.578293, 41.885082 ], [ -71.579908, 41.88472 ], [ -71.579389, 41.881812 ] ] ] ] } },
{ "type": "Feature", "properties": { "GEOID": "4470700", "NAME": "Tiverton", "NAMELSAD": "Tiverton CDP", "STUSPS": "RI", "STATE_NAME": "Rhode Island", "LSAD": "57", "place_type": "CDP", "population": 8091.0, "moe": 574.0 }, "geometry": { "type": "MultiPolygon", "coordinates": [ [ [ [ -71.215308, 41.625491 ], [ -71.211837, 41.623529 ], [ -71.2120462, 41.6198336 ], [ -71.208735, 41.618927 ], [ -71.207176, 41.617554 ], [ -71.206192, 41.618359 ], [ -71.204911, 41.617992 ], [ -71.203002, 41.619546 ], [ -71.201461, 41.622895 ], [ -71.19712, 41.62305 ], [ -71.196373, 41.624573 ], [ -71.194267, 41.626752 ], [ -71.192115, 41.627896 ], [ -71.192039, 41.629352 ], [ -71.189056, 41.630391 ], [ -71.186515, 41.629629 ], [ -71.188171, 41.631799 ], [ -71.188224, 41.632105 ], [ -71.187423, 41.641469 ], [ -71.187263, 41.642755 ], [ -71.184417, 41.652212 ], [ -71.179939, 41.660133 ], [ -71.176421, 41.665698 ], [ -71.17609, 41.668102 ], [ -71.17609, 41.668502 ], [ -71.1760866, 41.6686011 ], [ -71.17599, 41.671402 ], [ -71.18129, 41.672502 ], [ -71.1843299, 41.6730525 ], [ -71.1843332, 41.6730531 ], [ -71.191175, 41.674292 ], [ -71.191178, 41.674216 ], [ -71.19439, 41.674802 ], [ -71.19564, 41.67509 ], [ -71.2036777, 41.6608347 ], [ -71.208019, 41.653135 ], [ -71.210871, 41.642301 ], [ -71.211822, 41.639103 ], [ -71.2139296, 41.639103 ], [ -71.214127, 41.638142 ], [ -71.216744, 41.6255869 ], [ -71.215308, 41.625491 ] ] ] ] } },
{ "type": "Feature", "properties": { "GEOID": "4438980", "NAME": "Kingston", "NAMELSAD": "Kingston CDP", "STUSPS": "RI", "STATE_NAME": "Rhode Island", "LSAD": "57", "place_type": "CDP", "population": 7332.0, "moe": 478.0 }, "geometry": { "type": "MultiPolygon", "coordinates": [ [ [ [ -71.53688, 41.489037 ], [ -71.533699, 41.488621 ], [ -71.534305, 41.48522 ], [ -71.534687, 41.483714 ], [ -71.536401, 41.482172 ], [ -71.529358, 41.480911 ], [ -71.531616, 41.474735 ], [ -71.529347, 41.474114 ], [ -71.526982, 41.470916 ], [ -71.525891, 41.470616 ], [ -71.526865, 41.460752 ], [ -71.527296, 41.460158 ], [ -71.528748, 41.457417 ], [ -71.528191, 41.454025 ], [ -71.521986, 41.457522 ], [ -71.520023, 41.458648 ], [ -71.518318, 41.459709 ], [ -71.509422, 41.462257 ], [ -71.512688, 41.468639 ], [ -71.520103, 41.477688 ], [ -71.520897, 41.480084 ], [ -71.522598, 41.479939 ], [ -71.519424, 41.488953 ], [ -71.525749, 41.490395 ], [ -71.536171, 41.49173 ], [ -71.53688, 41.489037 ] ] ] ] } },
{ "type": "Feature", "properties": { "GEOID": "4454460", "NAME": "Pascoag", "NAMELSAD": "Pascoag CDP", "STUSPS": "RI", "STATE_NAME": "Rhode Island", "LSAD": "57", "place_type": "CDP", "population": 4410.0, "moe": 679.0 }, "geometry": { "type": "MultiPolygon", "coordinates": [ [ [ [ -71.730587, 41.965177 ], [ -71.726021, 41.963318 ], [ -71.72142, 41.962788 ], [ -71.720093, 41.961525 ], [ -71.719452, 41.959938 ], [ -71.717613, 41.959057 ], [ -71.71566, 41.956913 ], [ -71.717834, 41.951645 ], [ -71.720139, 41.949074 ], [ -71.720238, 41.947639 ], [ -71.72274, 41.945873 ], [ -71.724052, 41.945541 ], [ -71.722969, 41.943291 ], [ -71.722878, 41.941807 ], [ -71.720894, 41.937973 ], [ -71.722916, 41.937374 ], [ -71.722687, 41.934647 ], [ -71.723549, 41.933723 ], [ -71.722641, 41.932823 ], [ -71.722423, 41.930304 ], [ -71.709238, 41.930725 ], [ -71.700481, 41.930923 ], [ -71.678472, 41.931516 ], [ -71.681122, 41.936832 ], [ -71.683372, 41.939747 ], [ -71.689995, 41.946331 ], [ -71.691185, 41.947048 ], [ -71.685745, 41.947933 ], [ -71.686058, 41.956364 ], [ -71.685692, 41.957821 ], [ -71.680328, 41.95974 ], [ -71.680443, 41.962379 ], [ -71.685021, 41.961388 ], [ -71.686662, 41.961653 ], [ -71.686791, 41.963558 ], [ -71.688959, 41.96558 ], [ -71.688939, 41.966129 ], [ -71.689704, 41.967134 ], [ -71.692795, 41.965529 ], [ -71.692665, 41.965755 ], [ -71.695435, 41.97308 ], [ -71.701912, 41.973862 ], [ -71.704605, 41.976768 ], [ -71.705116, 41.977077 ], [ -71.709869, 41.975388 ], [ -71.711166, 41.975285 ], [ -71.716019, 41.976833 ], [ -71.719948, 41.976467 ], [ -71.721428, 41.975941 ], [ -71.72496, 41.971798 ], [ -71.723576, 41.97075 ], [ -71.722294, 41.966839 ], [ -71.722278, 41.966364 ], [ -71.723058, 41.965639 ], [ -71.724856, 41.966732 ], [ -71.727204, 41.967278 ], [ -71.727756, 41.965758 ], [ -71.729037, 41.965715 ], [ -71.730115, 41.966778 ], [ -71.730587, 41.965177 ] ] ] ] } },
{ "type": "Feature", "properties": { "GEOID": "4448700", "NAME": "Narragansett Pier", "NAMELSAD": "Narragansett Pier CDP", "STUSPS": "RI", "STATE_NAME": "Rhode Island", "LSAD": "57", "place_type": "CDP", "population": 3167.0, "moe": 527.0 }, "geometry": { "type": "MultiPolygon", "coordinates": [ [ [ [ -71.495801, 41.422601 ], [ -71.49265, 41.422427 ], [ -71.48889, 41.423465 ], [ -71.487961, 41.422999 ], [ -71.481361, 41.422832 ], [ -71.480659, 41.419125 ], [ -71.478325, 41.414936 ], [ -71.478249, 41.412685 ], [ -71.469803, 41.410839 ], [ -71.459816, 41.408989 ], [ -71.461349, 41.405731 ], [ -71.459632, 41.403086 ], [ -71.459242, 41.403119 ], [ -71.456211, 41.405123 ], [ -71.455371, 41.407962 ], [ -71.452974, 41.409676 ], [ -71.452639, 41.414758 ], [ -71.4526418, 41.4168711 ], [ -71.452643, 41.41778 ], [ -71.45482, 41.421821 ], [ -71.455388, 41.428005 ], [ -71.455004, 41.430318 ], [ -71.455845, 41.432986 ], [ -71.4547148, 41.4338861 ], [ -71.4546867, 41.4339085 ], [ -71.4546808, 41.4339132 ], [ -71.4546297, 41.4339539 ], [ -71.448948, 41.438479 ], [ -71.442788, 41.441398 ], [ -71.442223, 41.439721 ], [ -71.4406, 41.438368 ], [ -71.4390585, 41.4391944 ], [ -71.441233, 41.442434 ], [ -71.444013, 41.442458 ], [ -71.446087, 41.44338 ], [ -71.449948, 41.448924 ], [ -71.450902, 41.449925 ], [ -71.4526, 41.452202 ], [ -71.464283, 41.443543 ], [ -71.466022, 41.442563 ], [ -71.468241, 41.441712 ], [ -71.4727, 41.440015 ], [ -71.474835, 41.438891 ], [ -71.475075, 41.438877 ], [ -71.483326, 41.435421 ], [ -71.487704, 41.432149 ], [ -71.489553, 41.431911 ], [ -71.489991, 41.431714 ], [ -71.491614, 41.42998 ], [ -71.491758, 41.429765 ], [ -71.494802, 41.427301 ], [ -71.495501, 41.424101 ], [ -71.495801, 41.422601 ] ] ] ] } },
{ "type": "Feature", "properties": { "GEOID": "4434660", "NAME": "Hope Valley", "NAMELSAD": "Hope Valley CDP", "STUSPS": "RI", "STATE_NAME": "Rhode Island", "LSAD": "57", "place_type": "CDP", "population": 2297.0, "moe": 540.0 }, "geometry": { "type": "MultiPolygon", "coordinates": [ [ [ [ -71.741066, 41.522568 ], [ -71.738403, 41.522408 ], [ -71.737808, 41.519272 ], [ -71.734894, 41.515682 ], [ -71.733932, 41.511986 ], [ -71.731255, 41.510227 ], [ -71.728249, 41.48912 ], [ -71.728341, 41.488086 ], [ -71.723175, 41.490645 ], [ -71.716156, 41.495201 ], [ -71.716353, 41.498383 ], [ -71.714927, 41.49869 ], [ -71.716494, 41.503123 ], [ -71.715461, 41.504794 ], [ -71.712194, 41.504874 ], [ -71.711304, 41.506242 ], [ -71.712467, 41.50782 ], [ -71.708109, 41.509564 ], [ -71.707707, 41.511185 ], [ -71.705675, 41.512146 ], [ -71.704673, 41.514122 ], [ -71.704902, 41.514294 ], [ -71.705496, 41.515106 ], [ -71.700516, 41.517371 ], [ -71.691609, 41.522401 ], [ -71.696999, 41.522472 ], [ -71.702049, 41.524563 ], [ -71.704315, 41.52684 ], [ -71.711502, 41.53093 ], [ -71.712685, 41.531116 ], [ -71.715782, 41.530193 ], [ -71.721199, 41.531895 ], [ -71.726067, 41.530769 ], [ -71.728388, 41.530322 ], [ -71.736382, 41.530228 ], [ -71.736115, 41.527706 ], [ -71.73732, 41.525059 ], [ -71.736061, 41.523857 ], [ -71.741586, 41.523109 ], [ -71.741066, 41.522568 ] ] ] ] } },
{ "type": "Feature", "properties": { "GEOID": "4414860", "NAME": "Chepachet", "NAMELSAD": "Chepachet CDP", "STUSPS": "RI", "STATE_NAME": "Rhode Island", "LSAD": "57", "place_type": "CDP", "population": 1923.0, "moe": 663.0 }, "geometry": { "type": "MultiPolygon", "coordinates": [ [ [ [ -71.696587, 41.919739 ], [ -71.697669, 41.91972 ], [ -71.696172, 41.91635 ], [ -71.69343, 41.915693 ], [ -71.691813, 41.914531 ], [ -71.689085, 41.913688 ], [ -71.685669, 41.910285 ], [ -71.682471, 41.908718 ], [ -71.683026, 41.907172 ], [ -71.682243, 41.905416 ], [ -71.6844, 41.904053 ], [ -71.685206, 41.902536 ], [ -71.682877, 41.90147 ], [ -71.677647, 41.902088 ], [ -71.676971, 41.902113 ], [ -71.674169, 41.903012 ], [ -71.673227, 41.899961 ], [ -71.670181, 41.899945 ], [ -71.670158, 41.899635 ], [ -71.668968, 41.896717 ], [ -71.665268, 41.893475 ], [ -71.660027, 41.892818 ], [ -71.655067, 41.892555 ], [ -71.651764, 41.891174 ], [ -71.647621, 41.887642 ], [ -71.643402, 41.889091 ], [ -71.641817, 41.88902 ], [ -71.638344, 41.887936 ], [ -71.636535, 41.889471 ], [ -71.63377, 41.890466 ], [ -71.631473, 41.890823 ], [ -71.62845, 41.890693 ], [ -71.629131, 41.892192 ], [ -71.627405, 41.892868 ], [ -71.62722, 41.893744 ], [ -71.624918, 41.89369 ], [ -71.624019, 41.894762 ], [ -71.625847, 41.894676 ], [ -71.630926, 41.898777 ], [ -71.631253, 41.900021 ], [ -71.632154, 41.900782 ], [ -71.632843, 41.901957 ], [ -71.635799, 41.905874 ], [ -71.637773, 41.905888 ], [ -71.637872, 41.904602 ], [ -71.642761, 41.90506 ], [ -71.644736, 41.905024 ], [ -71.645821, 41.90686 ], [ -71.646217, 41.909657 ], [ -71.650276, 41.911766 ], [ -71.654511, 41.914625 ], [ -71.656616, 41.914625 ], [ -71.657083, 41.918322 ], [ -71.656375, 41.919565 ], [ -71.657604, 41.922873 ], [ -71.660294, 41.922806 ], [ -71.662437, 41.923824 ], [ -71.664307, 41.927017 ], [ -71.666786, 41.929684 ], [ -71.665588, 41.93082 ], [ -71.662664, 41.931858 ], [ -71.66668, 41.931771 ], [ -71.678472, 41.931516 ], [ -71.700481, 41.930923 ], [ -71.696587, 41.919739 ] ] ] ] } },
{ "type": "Feature", "properties": { "GEOID": "4433400", "NAME": "Harrisville", "NAMELSAD": "Harrisville CDP", "STUSPS": "RI", "STATE_NAME": "Rhode Island", "LSAD": "57", "place_type": "CDP", "population": 1767.0, "moe": 486.0 }, "geometry": { "type": "MultiPolygon", "coordinates": [ [ [ [ -71.695435, 41.97308 ], [ -71.692665, 41.965755 ], [ -71.692795, 41.965529 ], [ -71.689704, 41.967134 ], [ -71.688939, 41.966129 ], [ -71.686995, 41.966292 ], [ -71.678138, 41.963703 ], [ -71.675352, 41.962859 ], [ -71.668903, 41.962107 ], [ -71.669031, 41.963584 ], [ -71.667796, 41.964463 ], [ -71.665805, 41.964541 ], [ -71.66414, 41.96353 ], [ -71.662578, 41.96602 ], [ -71.664638, 41.966859 ], [ -71.663998, 41.968675 ], [ -71.664156, 41.970781 ], [ -71.666064, 41.972251 ], [ -71.667054, 41.974697 ], [ -71.667249, 41.976877 ], [ -71.666071, 41.978237 ], [ -71.666733, 41.979942 ], [ -71.668327, 41.979259 ], [ -71.669136, 41.975643 ], [ -71.669975, 41.973888 ], [ -71.672005, 41.973747 ], [ -71.671858, 41.974906 ], [ -71.673999, 41.973574 ], [ -71.673985, 41.971595 ], [ -71.676463, 41.969761 ], [ -71.678457, 41.971028 ], [ -71.678449, 41.970852 ], [ -71.681423, 41.971505 ], [ -71.683857, 41.970041 ], [ -71.684934, 41.97011 ], [ -71.692787, 41.973061 ], [ -71.695435, 41.97308 ] ] ] ] } },
{ "type": "Feature", "properties": { "GEOID": "4403520", "NAME": "Ashaway", "NAMELSAD": "Ashaway CDP", "STUSPS": "RI", "STATE_NAME": "Rhode Island", "LSAD": "57", "place_type": "CDP", "population": 1722.0, "moe": 537.0 }, "geometry": { "type": "MultiPolygon", "coordinates": [ [ [ [ -71.798374, 41.408919 ], [ -71.78867, 41.411036 ], [ -71.768451, 41.413801 ], [ -71.778419, 41.420525 ], [ -71.78064, 41.421471 ], [ -71.778648, 41.423637 ], [ -71.776688, 41.424034 ], [ -71.772765, 41.424569 ], [ -71.770622, 41.4245 ], [ -71.772232, 41.430286 ], [ -71.776054, 41.436157 ], [ -71.775253, 41.43792 ], [ -71.776497, 41.440514 ], [ -71.777565, 41.441914 ], [ -71.779015, 41.444942 ], [ -71.782295, 41.444912 ], [ -71.786842, 41.443409 ], [ -71.786758, 41.440582 ], [ -71.788933, 41.439602 ], [ -71.792953, 41.436295 ], [ -71.79451, 41.434105 ], [ -71.7967395, 41.4371278 ], [ -71.7972355, 41.4263941 ], [ -71.7976737, 41.4169104 ], [ -71.796318, 41.416224 ], [ -71.797124, 41.413693 ], [ -71.796978, 41.411443 ], [ -71.798374, 41.408919 ] ] ] ] } },
{ "type": "Feature", "properties": { "GEOID": "4445010", "NAME": "Melville", "NAMELSAD": "Melville CDP", "STUSPS": "RI", "STATE_NAME": "Rhode Island", "LSAD": "57", "place_type": "CDP", "population": 1631.0, "moe": 464.0 }, "geometry": { "type": "MultiPolygon", "coordinates": [ [ [ [ -71.301234, 41.583029 ], [ -71.300812, 41.58061 ], [ -71.299125, 41.579768 ], [ -71.297156, 41.579768 ], [ -71.297719, 41.581767 ], [ -71.298, 41.583134 ], [ -71.298562, 41.584922 ], [ -71.301515, 41.585658 ], [ -71.301234, 41.583029 ] ] ], [ [ [ -71.311129, 41.544052 ], [ -71.308082, 41.542935 ], [ -71.308082, 41.539377 ], [ -71.307181, 41.541051 ], [ -71.307262, 41.543031 ], [ -71.309309, 41.546291 ], [ -71.307393, 41.548625 ], [ -71.30221, 41.546029 ], [ -71.300649, 41.550058 ], [ -71.302916, 41.552614 ], [ -71.301602, 41.552067 ], [ -71.299763, 41.552788 ], [ -71.297365, 41.555964 ], [ -71.295095, 41.556155 ], [ -71.300672, 41.560507 ], [ -71.300256, 41.561008 ], [ -71.297738, 41.563925 ], [ -71.291522, 41.561715 ], [ -71.290667, 41.561988 ], [ -71.287497, 41.565398 ], [ -71.289982, 41.566982 ], [ -71.292996, 41.568237 ], [ -71.29113, 41.570126 ], [ -71.287078, 41.568154 ], [ -71.284547, 41.569937 ], [ -71.285731, 41.570796 ], [ -71.284618, 41.571592 ], [ -71.286685, 41.573129 ], [ -71.283202, 41.576337 ], [ -71.281591, 41.580362 ], [ -71.278024, 41.578823 ], [ -71.278566, 41.577831 ], [ -71.275353, 41.576896 ], [ -71.274883, 41.577776 ], [ -71.272889, 41.577332 ], [ -71.270988, 41.577878 ], [ -71.269714, 41.5812 ], [ -71.268272, 41.58924 ], [ -71.273794, 41.588864 ], [ -71.274757, 41.589269 ], [ -71.278007, 41.592271 ], [ -71.2808681, 41.5928311 ], [ -71.285265, 41.59237 ], [ -71.285635, 41.591642 ], [ -71.289073, 41.582706 ], [ -71.28574, 41.582771 ], [ -71.284076, 41.579393 ], [ -71.285142, 41.577127 ], [ -71.288376, 41.573274 ], [ -71.294363, 41.571416 ], [ -71.296673, 41.567124 ], [ -71.3011902, 41.5624644 ], [ -71.3016065, 41.562035 ], [ -71.303652, 41.559925 ], [ -71.3055393, 41.556358 ], [ -71.3056507, 41.5561475 ], [ -71.3069544, 41.5536836 ], [ -71.310533, 41.54692 ], [ -71.311129, 41.544052 ] ] ], [ [ [ -71.314151, 41.531446 ], [ -71.311346, 41.524222 ], [ -71.311251, 41.522621 ], [ -71.3126663, 41.5214251 ], [ -71.312237, 41.520853 ], [ -71.311141, 41.519396 ], [ -71.310523, 41.519449 ], [ -71.305669, 41.518866 ], [ -71.303939, 41.518662 ], [ -71.302056, 41.524065 ], [ -71.301385, 41.524075 ], [ -71.300635, 41.526158 ], [ -71.302062, 41.526297 ], [ -71.305129, 41.525673 ], [ -71.307521, 41.528223 ], [ -71.306823, 41.530223 ], [ -71.30178, 41.530963 ], [ -71.301681, 41.533848 ], [ -71.306004, 41.537168 ], [ -71.308831, 41.538636 ], [ -71.308082, 41.539377 ], [ -71.312696, 41.536514 ], [ -71.314151, 41.531446 ] ] ] ] } },
{ "type": "Feature", "properties": { "GEOID": "4408020", "NAME": "Bradford", "NAMELSAD": "Bradford CDP", "STUSPS": "RI", "STATE_NAME": "Rhode Island", "LSAD": "57", "place_type": "CDP", "population": 1511.0, "moe": 605.0 }, "geometry": { "type": "MultiPolygon", "coordinates": [ [ [ [ -71.774912, 41.382033 ], [ -71.774802, 41.380687 ], [ -71.762611, 41.378909 ], [ -71.762856, 41.378399 ], [ -71.762037, 41.379194 ], [ -71.759254, 41.387741 ], [ -71.758766, 41.388557 ], [ -71.757858, 41.389423 ], [ -71.751029, 41.393764 ], [ -71.749802, 41.392811 ], [ -71.748947, 41.392719 ], [ -71.738159, 41.393539 ], [ -71.731735, 41.389988 ], [ -71.730883, 41.390302 ], [ -71.731252, 41.398514 ], [ -71.733637, 41.398701 ], [ -71.735084, 41.399662 ], [ -71.731097, 41.400801 ], [ -71.738349, 41.400329 ], [ -71.739931, 41.401714 ], [ -71.742097, 41.401302 ], [ -71.745364, 41.402333 ], [ -71.746873, 41.403372 ], [ -71.748282, 41.405193 ], [ -71.747855, 41.406708 ], [ -71.750471, 41.407822 ], [ -71.755147, 41.407977 ], [ -71.755945, 41.407661 ], [ -71.758187, 41.40414 ], [ -71.761329, 41.401698 ], [ -71.763317, 41.401305 ], [ -71.764487, 41.3986 ], [ -71.765658, 41.396253 ], [ -71.764613, 41.395464 ], [ -71.764155, 41.391951 ], [ -71.771002, 41.386727 ], [ -71.77617, 41.385476 ], [ -71.774912, 41.382033 ] ] ] ] } },
{ "type": "Feature", "properties": { "GEOID": "4414320", "NAME": "Charlestown", "NAMELSAD": "Charlestown CDP", "STUSPS": "RI", "STATE_NAME": "Rhode Island", "LSAD": "57", "place_type": "CDP", "population": 1499.0, "moe": 316.0 }, "geometry": { "type": "MultiPolygon", "coordinates": [ [ [ [ -71.655447, 41.384879 ], [ -71.653313, 41.382201 ], [ -71.653431, 41.381274 ], [ -71.650353, 41.380128 ], [ -71.645537, 41.379626 ], [ -71.646145, 41.377369 ], [ -71.646676, 41.373184 ], [ -71.64633, 41.366884 ], [ -71.642236, 41.36626 ], [ -71.637698, 41.370323 ], [ -71.63549, 41.367412 ], [ -71.630371, 41.366961 ], [ -71.628463, 41.364326 ], [ -71.62576, 41.364178 ], [ -71.623852, 41.3658 ], [ -71.618444, 41.366741 ], [ -71.615057, 41.369125 ], [ -71.610866, 41.374445 ], [ -71.609379, 41.378226 ], [ -71.61046, 41.378541 ], [ -71.611768, 41.381345 ], [ -71.611881, 41.383063 ], [ -71.609858, 41.385725 ], [ -71.610519, 41.388943 ], [ -71.61061, 41.394376 ], [ -71.611867, 41.394125 ], [ -71.614031, 41.393495 ], [ -71.629379, 41.387455 ], [ -71.635124, 41.384556 ], [ -71.636673, 41.384094 ], [ -71.638206, 41.384014 ], [ -71.640505, 41.38444 ], [ -71.642121, 41.384803 ], [ -71.647717, 41.385958 ], [ -71.653523, 41.3856 ], [ -71.655447, 41.384879 ] ] ] ] } },
{ "type": "Feature", "properties": { "GEOID": "4412340", "NAME": "Carolina", "NAMELSAD": "Carolina CDP", "STUSPS": "RI", "STATE_NAME": "Rhode Island", "LSAD": "57", "place_type": "CDP", "population": 1048.0, "moe": 511.0 }, "geometry": { "type": "MultiPolygon", "coordinates": [ [ [ [ -71.676942, 41.448839 ], [ -71.674913, 41.447009 ], [ -71.673344, 41.446791 ], [ -71.671756, 41.445001 ], [ -71.668225, 41.445186 ], [ -71.659836, 41.449753 ], [ -71.657698, 41.450595 ], [ -71.654436, 41.451085 ], [ -71.649158, 41.450129 ], [ -71.650827, 41.451435 ], [ -71.650113, 41.453522 ], [ -71.651324, 41.455257 ], [ -71.649576, 41.456073 ], [ -71.645651, 41.46393 ], [ -71.644333, 41.467979 ], [ -71.643985, 41.470441 ], [ -71.643149, 41.471487 ], [ -71.643749, 41.472824 ], [ -71.642927, 41.475379 ], [ -71.642827, 41.480273 ], [ -71.641798, 41.481174 ], [ -71.642136, 41.482473 ], [ -71.644945, 41.482737 ], [ -71.646086, 41.481696 ], [ -71.649124, 41.480797 ], [ -71.651183, 41.477822 ], [ -71.656235, 41.477287 ], [ -71.658844, 41.475132 ], [ -71.660973, 41.474602 ], [ -71.663788, 41.474775 ], [ -71.664375, 41.470821 ], [ -71.66613, 41.469658 ], [ -71.665154, 41.465099 ], [ -71.668619, 41.465991 ], [ -71.668408, 41.462905 ], [ -71.669478, 41.460783 ], [ -71.671716, 41.461088 ], [ -71.674437, 41.457967 ], [ -71.675481, 41.453217 ], [ -71.676579, 41.452054 ], [ -71.676942, 41.448839 ] ] ] ] } },
{ "type": "Feature", "properties": { "GEOID": "4433040", "NAME": "Harmony", "NAMELSAD": "Harmony CDP", "STUSPS": "RI", "STATE_NAME": "Rhode Island", "LSAD": "57", "place_type": "CDP", "population": 1006.0, "moe": 460.0 }, "geometry": { "type": "MultiPolygon", "coordinates": [ [ [ [ -71.630208, 41.911126 ], [ -71.628592, 41.908613 ], [ -71.628888, 41.907189 ], [ -71.628302, 41.904651 ], [ -71.624629, 41.901246 ], [ -71.622165, 41.898524 ], [ -71.622107, 41.895818 ], [ -71.624019, 41.894762 ], [ -71.618077, 41.896012 ], [ -71.614122, 41.891552 ], [ -71.612373, 41.892205 ], [ -71.609008, 41.888565 ], [ -71.604596, 41.886632 ], [ -71.600193, 41.88497 ], [ -71.600065, 41.884473 ], [ -71.602226, 41.882935 ], [ -71.601287, 41.878633 ], [ -71.600305, 41.878154 ], [ -71.597115, 41.87826 ], [ -71.594997, 41.877212 ], [ -71.590355, 41.876568 ], [ -71.58739, 41.877877 ], [ -71.587202, 41.878718 ], [ -71.586748, 41.879736 ], [ -71.58887, 41.879197 ], [ -71.588701, 41.880123 ], [ -71.592225, 41.882678 ], [ -71.59327, 41.881716 ], [ -71.59696, 41.884128 ], [ -71.596195, 41.884707 ], [ -71.590607, 41.883521 ], [ -71.588683, 41.883503 ], [ -71.583131, 41.881685 ], [ -71.582246, 41.882576 ], [ -71.579348, 41.881617 ], [ -71.579389, 41.881812 ], [ -71.579908, 41.88472 ], [ -71.581891, 41.894665 ], [ -71.582808, 41.895011 ], [ -71.584148, 41.8953 ], [ -71.587058, 41.896931 ], [ -71.589016, 41.899039 ], [ -71.594184, 41.901993 ], [ -71.595589, 41.901588 ], [ -71.598564, 41.898193 ], [ -71.601624, 41.897057 ], [ -71.603645, 41.899307 ], [ -71.609528, 41.902946 ], [ -71.611336, 41.904655 ], [ -71.615303, 41.909996 ], [ -71.617378, 41.913719 ], [ -71.619431, 41.916252 ], [ -71.621567, 41.920334 ], [ -71.623213, 41.922217 ], [ -71.624309, 41.921693 ], [ -71.624856, 41.919451 ], [ -71.624657, 41.917268 ], [ -71.628739, 41.916343 ], [ -71.630268, 41.914579 ], [ -71.630208, 41.911126 ] ] ] ] } },
{ "type": "Feature", "properties": { "GEOID": "4431240", "NAME": "Greene", "NAMELSAD": "Greene CDP", "STUSPS": "RI", "STATE_NAME": "Rhode Island", "LSAD": "57", "place_type": "CDP", "population": 962.0, "moe": 325.0 }, "geometry": { "type": "MultiPolygon", "coordinates": [ [ [ [ -71.767891, 41.697249 ], [ -71.766205, 41.696934 ], [ -71.766853, 41.695433 ], [ -71.764954, 41.693997 ], [ -71.764763, 41.692596 ], [ -71.762611, 41.692 ], [ -71.764358, 41.687522 ], [ -71.763901, 41.68503 ], [ -71.760597, 41.685055 ], [ -71.756973, 41.67991 ], [ -71.749862, 41.677554 ], [ -71.745293, 41.678821 ], [ -71.745018, 41.676756 ], [ -71.741639, 41.676928 ], [ -71.744011, 41.679653 ], [ -71.744179, 41.682477 ], [ -71.742813, 41.683833 ], [ -71.743805, 41.685885 ], [ -71.742996, 41.688192 ], [ -71.741615, 41.689376 ], [ -71.733109, 41.688955 ], [ -71.728218, 41.688963 ], [ -71.693322, 41.691029 ], [ -71.694198, 41.700095 ], [ -71.698738, 41.709648 ], [ -71.706924, 41.708681 ], [ -71.711771, 41.707847 ], [ -71.71566, 41.708637 ], [ -71.718643, 41.708647 ], [ -71.728638, 41.710531 ], [ -71.731575, 41.711754 ], [ -71.731255, 41.713905 ], [ -71.734642, 41.717462 ], [ -71.737327, 41.716255 ], [ -71.745499, 41.714605 ], [ -71.746933, 41.715521 ], [ -71.752396, 41.715053 ], [ -71.752616, 41.714232 ], [ -71.7584, 41.713796 ], [ -71.759155, 41.713323 ], [ -71.757988, 41.712442 ], [ -71.758301, 41.708994 ], [ -71.761535, 41.707183 ], [ -71.762588, 41.704474 ], [ -71.762382, 41.702948 ], [ -71.763497, 41.702466 ], [ -71.764397, 41.700571 ], [ -71.76535, 41.701165 ], [ -71.766792, 41.700356 ], [ -71.767891, 41.697249 ] ] ] ] } },
{ "type": "Feature", "properties": { "GEOID": "4460260", "NAME": "Quonochontaug", "NAMELSAD": "Quonochontaug CDP", "STUSPS": "RI", "STATE_NAME": "Rhode Island", "LSAD": "57", "place_type": "CDP", "population": 610.0, "moe": 267.0 }, "geometry": { "type": "MultiPolygon", "coordinates": [ [ [ [ -71.722575, 41.336513 ], [ -71.718828, 41.333204 ], [ -71.7179884, 41.3312874 ], [ -71.716036, 41.331089 ], [ -71.70517, 41.334285 ], [ -71.701631, 41.336968 ], [ -71.696688, 41.340978 ], [ -71.6909922, 41.3421974 ], [ -71.691761, 41.344182 ], [ -71.693952, 41.343274 ], [ -71.695052, 41.343636 ], [ -71.698322, 41.349081 ], [ -71.698564, 41.350928 ], [ -71.696873, 41.351966 ], [ -71.695767, 41.354192 ], [ -71.696548, 41.358463 ], [ -71.69739, 41.358626 ], [ -71.700989, 41.358269 ], [ -71.70491, 41.356544 ], [ -71.70726, 41.356083 ], [ -71.708511, 41.356251 ], [ -71.714021, 41.354883 ], [ -71.71447, 41.352972 ], [ -71.713905, 41.351576 ], [ -71.709251, 41.351598 ], [ -71.708698, 41.350103 ], [ -71.709371, 41.349139 ], [ -71.708987, 41.347084 ], [ -71.711158, 41.34503 ], [ -71.712778, 41.342282 ], [ -71.712142, 41.337322 ], [ -71.713624, 41.336149 ], [ -71.714154, 41.340065 ], [ -71.715697, 41.338804 ], [ -71.715174, 41.337216 ], [ -71.717321, 41.336222 ], [ -71.717022, 41.334718 ], [ -71.71833, 41.336737 ], [ -71.716819, 41.338578 ], [ -71.718834, 41.336998 ], [ -71.720048, 41.338771 ], [ -71.721047, 41.338331 ], [ -71.720887, 41.336184 ], [ -71.72296, 41.338574 ], [ -71.722575, 41.336513 ] ] ] ] } },
{ "type": "Feature", "properties": { "GEOID": "4475920", "NAME": "Weekapaug", "NAMELSAD": "Weekapaug CDP", "STUSPS": "RI", "STATE_NAME": "Rhode Island", "LSAD": "57", "place_type": "CDP", "population": 541.0, "moe": 112.0 }, "geometry": { "type": "MultiPolygon", "coordinates": [ [ [ [ -71.784513, 41.33757 ], [ -71.784956, 41.335598 ], [ -71.783967, 41.335208 ], [ -71.779394, 41.336899 ], [ -71.778877, 41.339263 ], [ -71.77758, 41.335342 ], [ -71.773082, 41.333987 ], [ -71.77061, 41.334257 ], [ -71.770694, 41.33589 ], [ -71.769002, 41.334941 ], [ -71.768399, 41.336755 ], [ -71.767467, 41.335477 ], [ -71.765411, 41.330208 ], [ -71.76343, 41.330704 ], [ -71.7630229, 41.3286286 ], [ -71.7627725, 41.3286116 ], [ -71.761029, 41.328493 ], [ -71.751656, 41.325402 ], [ -71.7489215, 41.3269055 ], [ -71.751119, 41.328302 ], [ -71.75119, 41.329671 ], [ -71.749594, 41.330137 ], [ -71.750613, 41.336202 ], [ -71.752064, 41.338217 ], [ -71.752594, 41.341723 ], [ -71.749745, 41.344004 ], [ -71.746411, 41.345548 ], [ -71.745547, 41.346684 ], [ -71.750012, 41.344526 ], [ -71.75268, 41.342625 ], [ -71.760106, 41.341926 ], [ -71.763492, 41.34116 ], [ -71.766245, 41.341946 ], [ -71.768486, 41.342049 ], [ -71.777175, 41.341094 ], [ -71.779739, 41.341371 ], [ -71.785637, 41.339619 ], [ -71.784513, 41.33757 ] ] ] ] } },
{ "type": "Feature", "properties": { "GEOID": "4427640", "NAME": "Foster Center", "NAMELSAD": "Foster Center CDP", "STUSPS": "RI", "STATE_NAME": "Rhode Island", "LSAD": "57", "place_type": "CDP", "population": 358.0, "moe": 195.0 }, "geometry": { "type": "MultiPolygon", "coordinates": [ [ [ [ -71.75485, 41.797632 ], [ -71.752307, 41.795512 ], [ -71.750282, 41.792691 ], [ -71.748179, 41.791338 ], [ -71.746694, 41.786738 ], [ -71.746137, 41.786075 ], [ -71.74534, 41.784658 ], [ -71.742905, 41.776596 ], [ -71.739983, 41.777119 ], [ -71.736488, 41.778629 ], [ -71.732574, 41.780811 ], [ -71.730064, 41.780643 ], [ -71.727669, 41.779514 ], [ -71.727036, 41.779747 ], [ -71.725266, 41.78228 ], [ -71.724069, 41.782216 ], [ -71.721823, 41.78071 ], [ -71.721377, 41.782999 ], [ -71.719251, 41.782877 ], [ -71.71862, 41.784744 ], [ -71.714525, 41.782954 ], [ -71.712932, 41.786474 ], [ -71.71352, 41.789438 ], [ -71.711151, 41.789539 ], [ -71.709331, 41.791943 ], [ -71.71305, 41.791061 ], [ -71.718467, 41.793506 ], [ -71.721154, 41.796316 ], [ -71.722396, 41.80087 ], [ -71.727509, 41.799961 ], [ -71.731667, 41.799114 ], [ -71.73613, 41.798698 ], [ -71.746956, 41.798733 ], [ -71.75686, 41.797875 ], [ -71.75485, 41.797632 ] ] ] ] } },
{ "type": "Feature", "properties": { "GEOID": "4446000", "NAME": "Misquamicut", "NAMELSAD": "Misquamicut CDP", "STUSPS": "RI", "STATE_NAME": "Rhode Island", "LSAD": "57", "place_type": "CDP", "population": 348.0, "moe": 85.0 }, "geometry": { "type": "MultiPolygon", "coordinates": [ [ [ [ -71.841248, 41.321396 ], [ -71.838753, 41.32061 ], [ -71.837387, 41.319115 ], [ -71.8361175, 41.3148604 ], [ -71.833755, 41.315631 ], [ -71.815337, 41.320238 ], [ -71.7966009, 41.3237461 ], [ -71.797137, 41.326276 ], [ -71.799153, 41.32548 ], [ -71.797988, 41.326555 ], [ -71.799044, 41.327377 ], [ -71.8045, 41.324579 ], [ -71.80848, 41.323005 ], [ -71.809828, 41.323087 ], [ -71.808709, 41.324806 ], [ -71.808791, 41.326276 ], [ -71.807689, 41.32883 ], [ -71.806754, 41.329558 ], [ -71.808029, 41.332287 ], [ -71.813487, 41.331868 ], [ -71.81823, 41.32848 ], [ -71.820641, 41.327312 ], [ -71.824831, 41.326789 ], [ -71.827526, 41.328391 ], [ -71.831756, 41.329405 ], [ -71.837334, 41.325989 ], [ -71.839012, 41.324226 ], [ -71.842453, 41.323082 ], [ -71.841248, 41.321396 ] ] ] ] } },
{ "type": "Feature", "properties": { "GEOID": "4480960", "NAME": "Wyoming", "NAMELSAD": "Wyoming CDP", "STUSPS": "RI", "STATE_NAME": "Rhode Island", "LSAD": "57", "place_type": "CDP", "population": 320.0, "moe": 167.0 }, "geometry": { "type": "MultiPolygon", "coordinates": [ [ [ [ -71.704902, 41.514294 ], [ -71.704673, 41.514122 ], [ -71.703194, 41.513908 ], [ -71.702797, 41.510628 ], [ -71.697159, 41.507482 ], [ -71.690605, 41.512207 ], [ -71.688002, 41.511706 ], [ -71.683632, 41.50964 ], [ -71.682144, 41.508606 ], [ -71.681144, 41.507167 ], [ -71.676543, 41.507217 ], [ -71.675894, 41.508855 ], [ -71.676446, 41.511697 ], [ -71.674914, 41.513149 ], [ -71.676039, 41.514508 ], [ -71.678071, 41.51521 ], [ -71.681038, 41.515239 ], [ -71.682661, 41.514508 ], [ -71.684915, 41.515564 ], [ -71.68428, 41.519779 ], [ -71.685173, 41.521545 ], [ -71.691609, 41.522401 ], [ -71.700516, 41.517371 ], [ -71.705496, 41.515106 ], [ -71.704902, 41.514294 ] ] ] ] } },
{ "type": "Feature", "properties": { "GEOID": "4415940", "NAME": "Clayville", "NAMELSAD": "Clayville CDP", "STUSPS": "RI", "STATE_NAME": "Rhode Island", "LSAD": "57", "place_type": "CDP", "population": 296.0, "moe": 158.0 }, "geometry": { "type": "MultiPolygon", "coordinates": [ [ [ [ -71.705437, 41.767182 ], [ -71.701853, 41.769359 ], [ -71.699755, 41.768771 ], [ -71.699584, 41.767761 ], [ -71.696033, 41.764104 ], [ -71.6966, 41.762728 ], [ -71.693149, 41.761492 ], [ -71.689077, 41.761261 ], [ -71.686499, 41.762098 ], [ -71.685573, 41.763015 ], [ -71.68749, 41.763481 ], [ -71.688137, 41.764917 ], [ -71.686868, 41.766663 ], [ -71.685035, 41.763557 ], [ -71.683441, 41.763867 ], [ -71.684741, 41.764796 ], [ -71.684364, 41.766574 ], [ -71.683023, 41.766872 ], [ -71.681344, 41.765848 ], [ -71.680546, 41.767449 ], [ -71.680146, 41.768482 ], [ -71.684595, 41.771364 ], [ -71.68336, 41.773062 ], [ -71.681792, 41.772982 ], [ -71.682503, 41.770633 ], [ -71.679931, 41.771173 ], [ -71.67805, 41.772354 ], [ -71.676869, 41.771982 ], [ -71.677568, 41.770576 ], [ -71.675898, 41.770386 ], [ -71.675894, 41.770362 ], [ -71.671963, 41.768258 ], [ -71.671494, 41.769848 ], [ -71.670044, 41.769592 ], [ -71.67057, 41.771454 ], [ -71.669891, 41.77253 ], [ -71.668724, 41.771828 ], [ -71.667885, 41.774757 ], [ -71.665443, 41.778221 ], [ -71.66732, 41.779812 ], [ -71.669014, 41.783672 ], [ -71.667233, 41.785468 ], [ -71.67053, 41.785448 ], [ -71.672107, 41.78438 ], [ -71.672231, 41.783129 ], [ -71.678029, 41.782552 ], [ -71.680848, 41.782067 ], [ -71.682802, 41.780028 ], [ -71.684659, 41.779984 ], [ -71.690026, 41.78129 ], [ -71.691501, 41.77937 ], [ -71.694886, 41.779537 ], [ -71.694611, 41.778164 ], [ -71.696045, 41.775658 ], [ -71.698746, 41.77786 ], [ -71.699754, 41.776253 ], [ -71.699221, 41.77468 ], [ -71.703937, 41.773262 ], [ -71.704047, 41.772394 ], [ -71.70893, 41.768264 ], [ -71.705437, 41.767182 ] ] ] ] } },
{ "type": "Feature", "properties": { "GEOID": "4435200", "NAME": "Hopkinton", "NAMELSAD": "Hopkinton CDP", "STUSPS": "RI", "STATE_NAME": "Rhode Island", "LSAD": "57", "place_type": "CDP", "population": 206.0, "moe": 113.0 }, "geometry": { "type": "MultiPolygon", "coordinates": [ [ [ [ -71.7964859, 41.4426147 ], [ -71.791369, 41.446077 ], [ -71.78643, 41.448463 ], [ -71.786443, 41.448326 ], [ -71.783853, 41.449488 ], [ -71.782374, 41.450438 ], [ -71.780541, 41.452072 ], [ -71.756838, 41.452194 ], [ -71.757443, 41.454245 ], [ -71.757559, 41.459496 ], [ -71.758713, 41.46125 ], [ -71.759166, 41.47008 ], [ -71.759238, 41.471791 ], [ -71.761494, 41.472463 ], [ -71.764743, 41.475301 ], [ -71.777203, 41.475312 ], [ -71.7949847, 41.4751025 ], [ -71.7956834, 41.4599807 ], [ -71.7964859, 41.4426147 ] ] ] ] } },
{ "type": "Feature", "properties": { "GEOID": "4475200", "NAME": "Watch Hill", "NAMELSAD": "Watch Hill CDP", "STUSPS": "RI", "STATE_NAME": "Rhode Island", "LSAD": "57", "place_type": "CDP", "population": 203.0, "moe": 110.0 }, "geometry": { "type": "MultiPolygon", "coordinates": [ [ [ [ -71.862772, 41.309791 ], [ -71.859899, 41.309424 ], [ -71.8574721, 41.3063685 ], [ -71.857432, 41.306318 ], [ -71.845285, 41.31187 ], [ -71.8361175, 41.3148604 ], [ -71.837387, 41.319115 ], [ -71.838753, 41.32061 ], [ -71.841248, 41.321396 ], [ -71.842453, 41.323082 ], [ -71.841915, 41.323955 ], [ -71.845613, 41.324245 ], [ -71.848333, 41.323064 ], [ -71.851706, 41.320788 ], [ -71.85004, 41.321019 ], [ -71.849808, 41.319881 ], [ -71.853374, 41.318865 ], [ -71.855711, 41.320155 ], [ -71.857903, 41.317731 ], [ -71.859624, 41.317246 ], [ -71.857531, 41.316401 ], [ -71.855395, 41.316909 ], [ -71.855331, 41.315602 ], [ -71.855395, 41.314695 ], [ -71.858852, 41.315265 ], [ -71.859569, 41.313388 ], [ -71.857599, 41.313037 ], [ -71.85687, 41.311934 ], [ -71.858641, 41.3101 ], [ -71.861722, 41.311237 ], [ -71.8626677, 41.3108636 ], [ -71.862772, 41.309791 ] ] ] ] } }
]
}
